ONEWEB-0157             
1 48055U 21025P   26177.67591594  .00000253  00000+0  65652-3 0  9997
2 48055  87.8968 318.3339 0002215 103.0478 257.0898 13.13471390254814
ONEWEB-0162             
1 48056U 21025Q   26177.65206844 -.00000262  00000+0 -75312-3 0  9993
2 48056  87.8967 318.3395 0001975  94.2256 265.9099 13.13470099254785
ONEWEB-0155             
1 48057U 21025R   26177.65897250 -.00000191  00000+0 -55881-3 0  9991
2 48057  87.8967 318.3342 0001313 105.5308 254.5966 13.13470446254927
ONEWEB-0149             
1 48058U 21025S   26177.68099252  .00000028  00000+0  40942-4 0  9991
2 48058  87.8967 318.3335 0000697  80.0052 280.1156 13.13467965254734
ONEWEB-0148             
1 48059U 21025T   26177.64373558 -.00000189  00000+0 -55381-3 0  9994
2 48059  87.8962 318.3471 0002357  88.3635 271.7764 13.13471002254855
ONEWEB-0160             
1 48060U 21025U   26177.66065432 -.00000116  00000+0 -35319-3 0  9996
2 48060  87.8963 318.3398 0001158  87.8108 272.3154 13.13471951254801
ONEWEB-0163             
1 48061U 21025V   26177.41688738 -.00000249  00000+0 -71626-3 0  9998
2 48061  87.8969 318.3836 0002165 102.3343 257.8028 13.13469103254891
ONEWEB-0159             
1 48062U 21025W   26177.40842779 -.00000214  00000+0 -62030-3 0  9996
2 48062  87.8973 318.3787 0002032 103.4555 256.6800 13.13468634254817
ONEWEB-0164             
1 48063U 21025X   26177.61834493  .00000378  00000+0  10010-2 0  9993
2 48063  87.8973 318.3436 0001792  98.6199 261.5133 13.13470568254824
ONEWEB-0167             
1 48064U 21025Y   26177.64627705 -.00000295  00000+0 -84174-3 0  9996
2 48064  87.8961 318.3471 0002040 117.0031 243.1306 13.13469229254818
ONEWEB-0166             
1 48065U 21025Z   26177.66913773  .00000111  00000+0  26792-3 0  9999
2 48065  87.8971 318.3148 0001940  97.2467 262.8882 13.13472657254895
ONEWEB-0151             
1 48066U 21025AA  26177.67081543  .00000124  00000+0  30433-3 0  9993
2 48066  87.8963 318.3305 0001844 102.1283 258.0053 13.13472114254836
ONEWEB-0170             
1 48067U 21025AB  26177.67927789 -.00001001  00000+0 -27765-2 0  9995
2 48067  87.8957 318.3307 0002079 111.7090 248.4260 13.13471899254792
ONEWEB-0168             
1 48068U 21025AC  26177.66403694  .00000946  00000+0  25548-2 0  9991
2 48068  87.8969 318.3341 0001970  99.8121 260.3231 13.13464892254802
ONEWEB-0173             
1 48069U 21025AD  26177.42705120 -.00000234  00000+0 -67642-3 0  9999
2 48069  87.8963 318.3825 0002120 106.3758 253.7604 13.13471397255014
ONEWEB-0171             
1 48070U 21025AE  26177.61665120  .00000401  00000+0  10634-2 0  9999
2 48070  87.8960 318.3526 0001819 100.9948 259.1386 13.13471278254852
ONEWEB-0172             
1 48071U 21025AF  26177.74869428  .00000114  00000+0  27618-3 0  9993
2 48071  87.8966 318.3168 0001931 103.3781 256.7563 13.13469826255765
ONEWEB-0174             
1 48072U 21025AG  26177.65389439 -.00000296  00000+0 -84488-3 0  9994
2 48072  87.8965 318.3348 0002009  96.0651 264.0707 13.13471208255079
ONEWEB-0175             
1 48073U 21025AH  26177.68436714  .00000321  00000+0  84347-3 0  9998
2 48073  87.8970 318.3135 0001672 107.9286 252.2025 13.13471914254739
ONEWEB-0177             
1 48074U 21025AJ  26177.62003822  .00000299  00000+0  78260-3 0  9994
2 48074  87.8969 318.3446 0002114  98.3228 261.8141 13.13469177254917
ONEWEB-0178             
1 48075U 21025AK  26177.63880132 -.00000184  00000+0 -53809-3 0  9990
2 48075  87.8961 318.3523 0001910 106.4466 253.6873 13.13468650254965
ONEWEB-0108             
1 48076U 21025AL  26177.75038672  .00000068  00000+0  15011-3 0  9990
2 48076  87.8972 318.3103 0001817  91.2419 268.8918 13.13471106254909
ONEWEB-0169             
1 48077U 21025AM  26177.63019301  .00000133  00000+0  32936-3 0  9994
2 48077  87.8963 318.3413 0001979  96.8509 263.2845 13.13470520253540
ONEWEB-0176             
1 48210U 21031A   26177.69371069  .00000067  00000+0  14544-3 0  9999
2 48210  87.8971 287.8046 0001971 104.1902 255.9447 13.14503464249560
ONEWEB-0184             
1 48211U 21031B   26177.59063397  .00000147  00000+0  36325-3 0  9991
2 48211  87.8974 287.8264 0001953 125.0902 235.0411 13.14504178249527
ONEWEB-0179             
1 48212U 21031C   26177.71165249  .00000268  00000+0  82313-4 0  9998
2 48212  87.8994 284.6801 0219357 225.8562 132.4413 14.25530551250400
ONEWEB-0180             
1 48213U 21031D   26177.59381878  .00000209  00000+0  52987-3 0  9991
2 48213  87.8975 287.8220 0002310 107.7884 252.3498 13.14506281249452
ONEWEB-0218             
1 48214U 21031E   26177.69213249  .00000163  00000+0  40506-3 0  9992
2 48214  87.8983 287.8023 0002209 123.6638 236.4703 13.14503347249625
ONEWEB-0209             
1 48215U 21031F   26177.68102602  .00000312  00000+0  80832-3 0  9994
2 48215  87.8970 287.8201 0002224 101.3229 258.8150 13.14503028249626
ONEWEB-0198             
1 48216U 21031G   26177.74142976  .00000055  00000+0  11310-3 0  9999
2 48216  87.8959 287.8067 0002292 110.0264 250.1113 13.14503331249749
